ZHONGXING-6E            
1 58253U 23172A   26061.75360138 -.00000378  00000+0  00000+0 0  9993
2 58253   0.0162 113.4325 0002538 237.5648 196.3332  1.00269118  8593
YAOGAN-41               
1 58582U 23197A   26061.82652824 -.00000379  00000+0  00000+0 0  9990
2 58582   3.3256 311.5720 0010433 181.9207  87.8328  1.00275905  8257
ARKTIKA-M 2             
1 58584U 23198A   26061.08569816  .00000131  00000+0  00000+0 0  9994
2 58584  63.2200 166.2306 6876768 267.7889  18.8403  2.00614887 16179
FREGAT R/B              
1 58585U 23198B   26061.25803939 -.00000488  00000+0  00000+0 0  9997
2 58585  63.2368 165.9088 6923359 266.7694  18.8495  1.99035375 16076
OVZON-3                 
1 58698U 24003A   26061.52866572  .00000034  00000+0  00000+0 0  9996
2 58698   0.0144 152.6879 0000139 172.4278  85.1763  1.00273743  6372
FALCON 9 R/B            
1 58699U 24003B   26061.65695506  .00001057  00000+0  55456-3 0  9993
2 58699  26.3826  83.8025 7721801 171.4523 221.3117  1.74297814 13342
INSAT-3DS               
1 58990U 24033A   26061.67573977 -.00000172  00000+0  00000+0 0  9998
2 58990   0.0600 265.4797 0002309  89.0478 131.2531  1.00270355 46008
MERAH PUTIH 2           
1 58995U 24035A   26061.72475373 -.00000374  00000+0  00000+0 0  9996
2 58995   0.0119 158.7999 0001058 189.9140 185.6378  1.00271761  7520
FALCON 9 R/B            
1 58996U 24035B   26061.48800256  .00000795  00000+0  81633-3 0  9993
2 58996  18.8893 119.3792 8031261 118.0284 341.0277  1.39761137 10310
TJS-11                  
1 59020U 24037A   26061.90170157 -.00000384  00000+0  00000+0 0  9991
2 59020   4.3417 325.7840 0005756  39.5509 240.2619  1.00274694  7510
HULIANWAN GAOGUI-01 (H*)
1 59069U 24040A   26061.73730796  .00000139  00000+0  00000+0 0  9997
2 59069   0.0598 317.0221 0004341  39.0763 103.5220  1.00273246  6261
EUTELSAT 36D            
1 59346U 24059A   26061.73782796  .00000139  00000+0  00000+0 0  9992
2 59346   0.0129 136.6074 0000317 175.1047 150.2665  1.00269961  7088
FALCON 9 R/B            
1 59347U 24059B   26057.44443787  .01382462 -42148-5  95600-3 0  9993
2 59347  23.4821 214.0766 7370314  47.9550 354.5557  2.24395803  8931
PAKSAT-MM1              
1 59915U 24104A   26061.16783184  .00000136  00000+0  00000+0 0  9991
2 59915   0.0078 133.5479 0003002 201.1206 283.9197  1.00269860  6451
TITAN 3C TRANSTAGE DEB  
1 59978U 68081AL  26055.65991565  .00000031  00000+0  00000+0 0  9997
2 59978   1.9541  55.2725 0103462 246.8901 112.4820  1.02046516 28667
TITAN 3C TRANSTAGE DEB  
1 59981U 68081AP  26055.52387568 -.00000010  00000+0  00000+0 0  9997
2 59981   2.1517  46.8618 0239412 257.3440 264.2268  1.00903601 59722
TITAN 3C TRANSTAGE DEB  
1 59983U 68081AR  26054.19714138  .00000043  00000+0  00000+0 0  9993
2 59983   2.4491  58.6146 0210464   8.6022 352.1275  1.02072056  6791
